[{"OBJECT_NAME":"CONTINUUM-1","OBJECT_ID":"2023-001AN","EPOCH":"2026-03-09T23:17:35.458656","MEAN_MOTION":15.27981258,"ECCENTRICITY":0.00109493,"INCLINATION":97.3456,"RA_OF_ASC_NODE":133.3964,"ARG_OF_PERICENTER":60.1976,"MEAN_ANOMALY":300.0351,"EPHEMERIS_TYPE":0,"CLASSIFICATION_TYPE":"U","NORAD_CAT_ID":55045,"ELEMENT_SET_NO":999,"REV_AT_EPOCH":17709,"BSTAR":0.00052859897,"MEAN_MOTION_DOT":0.00014395,"MEAN_MOTION_DDOT":0},{"OBJECT_NAME":"STARLINK-34295","OBJECT_ID":"2025-130T","EPOCH":"2026-03-09T07:40:00.163776","MEAN_MOTION":15.30204072,"ECCENTRICITY":9.471e-5,"INCLINATION":53.1599,"RA_OF_ASC_NODE":90.4461,"ARG_OF_PERICENTER":66.4686,"MEAN_ANOMALY":293.6414,"EPHEMERIS_TYPE":0,"CLASSIFICATION_TYPE":"U","NORAD_CAT_ID":64455,"ELEMENT_SET_NO":999,"REV_AT_EPOCH":4064,"BSTAR":0.00063794647,"MEAN_MOTION_DOT":0.00018585,"MEAN_MOTION_DDOT":0}]
